{"type": "FeatureCollection", "features": [{"type": "Feature", "properties": {"norad_id": 25590, "name": "COSMOS 2361", "group": "musson", "lat": -20.124954743735795, "lon": -29.29502747764183, "alt_km": 1003.0272003373066, "timestamp": "2025-12-27T07:26:25.491533+00:00", "meta": {"OBJECT_NAME": "COSMOS 2361", "OBJECT_ID": "1998-076A", "EPOCH": "2025-12-26T23:03:30.281760", "MEAN_MOTION": 13.73219085, "ECCENTRICITY": 0.00303988, "INCLINATION": 82.9346, "RA_OF_ASC_NODE": 333.5679, "ARG_OF_PERICENTER": 224.4841, "MEAN_ANOMALY": 189.4518, "EPHEMERIS_TYPE": 0, "CLASSIFICATION_TYPE": "U", "NORAD_CAT_ID": 25590, "ELEMENT_SET_NO": 999, "REV_AT_EPOCH": 35306, "BSTAR": 6.5783468e-05, "MEAN_MOTION_DOT": 7.6e-07, "MEAN_MOTION_DDOT": 0}, "tle": {"line1": "1 25590U 98076A   25360.96076715  .00000076  00000+0  65783-4 0  9993", "line2": "2 25590  82.9346 333.5679 0030398 224.4841 189.4518 13.73219085353061"}}, "geometry": {"type": "Point", "coordinates": [-29.29502747764183, -20.124954743735795]}}, {"type": "Feature", "properties": {"norad_id": 26818, "name": "COSMOS 2378", "group": "musson", "lat": 77.57224614863455, "lon": 134.63170191715244, "alt_km": 966.6377781514739, "timestamp": "2025-12-27T07:26:25.491554+00:00", "meta": {"OBJECT_NAME": "COSMOS 2378", "OBJECT_ID": "2001-023A", "EPOCH": "2025-12-26T10:31:21.747360", "MEAN_MOTION": 13.7414309, "ECCENTRICITY": 0.003327, "INCLINATION": 82.9272, "RA_OF_ASC_NODE": 349.5666, "ARG_OF_PERICENTER": 166.5607, "MEAN_ANOMALY": 304.8436, "EPHEMERIS_TYPE": 0, "CLASSIFICATION_TYPE": "U", "NORAD_CAT_ID": 26818, "ELEMENT_SET_NO": 999, "REV_AT_EPOCH": 23111, "BSTAR": 4.6609e-05, "MEAN_MOTION_DOT": 5.9e-07, "MEAN_MOTION_DDOT": 0}, "tle": {"line1": "1 26818U 01023A   25360.43844615  .00000059  00000+0  46609-4 0  9994", "line2": "2 26818  82.9272 349.5666 0033270 166.5607 304.8436 13.74143090231110"}}, "geometry": {"type": "Point", "coordinates": [134.63170191715244, 77.57224614863455]}}, {"type": "Feature", "properties": {"norad_id": 27436, "name": "COSMOS 2389", "group": "musson", "lat": 0.21195100710028092, "lon": -63.77435425403254, "alt_km": 951.6004257358336, "timestamp": "2025-12-27T07:26:25.491568+00:00", "meta": {"OBJECT_NAME": "COSMOS 2389", "OBJECT_ID": "2002-026A", "EPOCH": "2025-12-26T23:02:37.613184", "MEAN_MOTION": 13.75156197, "ECCENTRICITY": 0.00469762, "INCLINATION": 82.9514, "RA_OF_ASC_NODE": 296.4583, "ARG_OF_PERICENTER": 21.8938, "MEAN_ANOMALY": 47.5985, "EPHEMERIS_TYPE": 0, "CLASSIFICATION_TYPE": "U", "NORAD_CAT_ID": 27436, "ELEMENT_SET_NO": 999, "REV_AT_EPOCH": 18344, "BSTAR": 6.7460006e-05, "MEAN_MOTION_DOT": 8e-07, "MEAN_MOTION_DDOT": 0}, "tle": {"line1": "1 27436U 02026A   25360.96015756  .00000080  00000+0  67460-4 0  9991", "line2": "2 27436  82.9514 296.4583 0046976  21.8938  47.5985 13.75156197183446"}}, "geometry": {"type": "Point", "coordinates": [-63.77435425403254, 0.21195100710028092]}}, {"type": "Feature", "properties": {"norad_id": 27818, "name": "COSMOS 2398", "group": "musson", "lat": 11.285111957959911, "lon": 80.5465882769719, "alt_km": 994.5861430038176, "timestamp": "2025-12-27T07:26:25.491580+00:00", "meta": {"OBJECT_NAME": "COSMOS 2398", "OBJECT_ID": "2003-023A", "EPOCH": "2025-12-26T23:40:55.878240", "MEAN_MOTION": 13.72387299, "ECCENTRICITY": 0.00326813, "INCLINATION": 82.9482, "RA_OF_ASC_NODE": 262.2001, "ARG_OF_PERICENTER": 73.8544, "MEAN_ANOMALY": 298.0938, "EPHEMERIS_TYPE": 0, "CLASSIFICATION_TYPE": "U", "NORAD_CAT_ID": 27818, "ELEMENT_SET_NO": 999, "REV_AT_EPOCH": 13012, "BSTAR": 6.1519074e-05, "MEAN_MOTION_DOT": 7.2e-07, "MEAN_MOTION_DDOT": 0}, "tle": {"line1": "1 27818U 03023A   25360.98675785  .00000072  00000+0  61519-4 0  9999", "line2": "2 27818  82.9482 262.2001 0032681  73.8544 298.0938 13.72387299130122"}}, "geometry": {"type": "Point", "coordinates": [80.5465882769719, 11.285111957959911]}}, {"type": "Feature", "properties": {"norad_id": 28380, "name": "COSMOS 2407", "group": "musson", "lat": -29.371425916733234, "lon": 26.092868414974287, "alt_km": 1011.0338993564374, "timestamp": "2025-12-27T07:26:25.491591+00:00", "meta": {"OBJECT_NAME": "COSMOS 2407", "OBJECT_ID": "2004-028A", "EPOCH": "2025-12-26T22:15:15.157728", "MEAN_MOTION": 13.76315258, "ECCENTRICITY": 0.00396133, "INCLINATION": 82.9593, "RA_OF_ASC_NODE": 202.388, "ARG_OF_PERICENTER": 16.0024, "MEAN_ANOMALY": 98.2276, "EPHEMERIS_TYPE": 0, "CLASSIFICATION_TYPE": "U", "NORAD_CAT_ID": 28380, "ELEMENT_SET_NO": 999, "REV_AT_EPOCH": 7618, "BSTAR": 5.1700617e-05, "MEAN_MOTION_DOT": 6.6e-07, "MEAN_MOTION_DDOT": 0}, "tle": {"line1": "1 28380U 04028A   25360.92725877  .00000066  00000+0  51701-4 0  9997", "line2": "2 28380  82.9593 202.3880 0039613  16.0024  98.2276 13.76315258 76184"}}, "geometry": {"type": "Point", "coordinates": [26.092868414974287, -29.371425916733234]}}, {"type": "Feature", "properties": {"norad_id": 28521, "name": "COSMOS 2414", "group": "musson", "lat": -0.4018747088396716, "lon": 173.59220643171554, "alt_km": 943.8871703230934, "timestamp": "2025-12-27T07:26:25.491602+00:00", "meta": {"OBJECT_NAME": "COSMOS 2414", "OBJECT_ID": "2005-002A", "EPOCH": "2025-12-26T22:47:28.651488", "MEAN_MOTION": 13.8790478, "ECCENTRICITY": 0.00414424, "INCLINATION": 82.9489, "RA_OF_ASC_NODE": 173.9145, "ARG_OF_PERICENTER": 100.34, "MEAN_ANOMALY": 260.2439, "EPHEMERIS_TYPE": 0, "CLASSIFICATION_TYPE": "U", "NORAD_CAT_ID": 28521, "ELEMENT_SET_NO": 999, "REV_AT_EPOCH": 5992, "BSTAR": 5.8440344e-05, "MEAN_MOTION_DOT": 8.6e-07, "MEAN_MOTION_DDOT": 0}, "tle": {"line1": "1 28521U 05002A   25360.94963717  .00000086  00000+0  58440-4 0  9995", "line2": "2 28521  82.9489 173.9145 0041442 100.3400 260.2439 13.87904780 59921"}}, "geometry": {"type": "Point", "coordinates": [173.59220643171554, -0.4018747088396716]}}, {"type": "Feature", "properties": {"norad_id": 32052, "name": "COSMOS 2429", "group": "musson", "lat": -6.073521859498718, "lon": 153.31852249490458, "alt_km": 1012.7491768440432, "timestamp": "2025-12-27T07:26:25.491612+00:00", "meta": {"OBJECT_NAME": "COSMOS 2429", "OBJECT_ID": "2007-038A", "EPOCH": "2025-12-26T21:48:25.665696", "MEAN_MOTION": 13.75150822, "ECCENTRICITY": 0.00383868, "INCLINATION": 82.9809, "RA_OF_ASC_NODE": 332.8632, "ARG_OF_PERICENTER": 358.7852, "MEAN_ANOMALY": 1.3205, "EPHEMERIS_TYPE": 0, "CLASSIFICATION_TYPE": "U", "NORAD_CAT_ID": 32052, "ELEMENT_SET_NO": 999, "REV_AT_EPOCH": 91797, "BSTAR": 6.4164743e-05, "MEAN_MOTION_DOT": 7.7e-07, "MEAN_MOTION_DDOT": 0}, "tle": {"line1": "1 32052U 07038A   25360.90863039  .00000077  00000+0  64165-4 0  9993", "line2": "2 32052  82.9809 332.8632 0038386 358.7852   1.3205 13.75150822917971"}}, "geometry": {"type": "Point", "coordinates": [153.31852249490458, -6.073521859498718]}}, {"type": "Feature", "properties": {"norad_id": 35635, "name": "COSMOS 2454", "group": "musson", "lat": 23.0336981473664, "lon": -25.413305718610626, "alt_km": 936.1724615748462, "timestamp": "2025-12-27T07:26:25.491623+00:00", "meta": {"OBJECT_NAME": "COSMOS 2454", "OBJECT_ID": "2009-039A", "EPOCH": "2025-12-26T20:51:38.645856", "MEAN_MOTION": 13.89930373, "ECCENTRICITY": 0.00199068, "INCLINATION": 82.956, "RA_OF_ASC_NODE": 157.9342, "ARG_OF_PERICENTER": 35.5854, "MEAN_ANOMALY": 76.4086, "EPHEMERIS_TYPE": 0, "CLASSIFICATION_TYPE": "U", "NORAD_CAT_ID": 35635, "ELEMENT_SET_NO": 999, "REV_AT_EPOCH": 83346, "BSTAR": 5.8573957e-05, "MEAN_MOTION_DOT": 8.8e-07, "MEAN_MOTION_DDOT": 0}, "tle": {"line1": "1 35635U 09039A   25360.86919729  .00000088  00000+0  58574-4 0  9998", "line2": "2 35635  82.9560 157.9342 0019906  35.5854  76.4086 13.89930373833461"}}, "geometry": {"type": "Point", "coordinates": [-25.413305718610626, 23.0336981473664]}}, {"type": "Feature", "properties": {"norad_id": 36519, "name": "COSMOS 2463", "group": "musson", "lat": -40.182384317850754, "lon": 10.014921690243902, "alt_km": 992.6855755495217, "timestamp": "2025-12-27T07:26:25.491634+00:00", "meta": {"OBJECT_NAME": "COSMOS 2463", "OBJECT_ID": "2010-017A", "EPOCH": "2025-12-26T14:43:53.597856", "MEAN_MOTION": 13.71650343, "ECCENTRICITY": 0.0034842, "INCLINATION": 82.9603, "RA_OF_ASC_NODE": 16.5163, "ARG_OF_PERICENTER": 248.1363, "MEAN_ANOMALY": 235.1487, "EPHEMERIS_TYPE": 0, "CLASSIFICATION_TYPE": "U", "NORAD_CAT_ID": 36519, "ELEMENT_SET_NO": 999, "REV_AT_EPOCH": 78427, "BSTAR": 3.8217e-05, "MEAN_MOTION_DOT": 4.9e-07, "MEAN_MOTION_DDOT": 0}, "tle": {"line1": "1 36519U 10017A   25360.61381479  .00000049  00000+0  38217-4 0  9995", "line2": "2 36519  82.9603  16.5163 0034842 248.1363 235.1487 13.71650343784275"}}, "geometry": {"type": "Point", "coordinates": [10.014921690243902, -40.182384317850754]}}]}